FENGYUN 1C DEB          
1 31660U 99025CBS 17341.30868156  .00000200  00000-0  10722-3 0  9991
2 31660  98.7196  19.4427 0112690  35.1810 325.6741 14.20036396547921
